NORAD_CAT_ID,OBJECT_NAME,OBJECT_TYPE,EPOCH,MEAN_MOTION,ECCENTRICITY,INCLINATION,RA_OF_ASC_NODE,ARG_OF_PERICENTER,MEAN_ANOMALY,BSTAR,MEAN_MOTION_DOT,MEAN_MOTION_DDOT,TLE_LINE0,TLE_LINE1,TLE_LINE2,SEMIMAJOR_AXIS,PERIOD,APOGEE,PERIGEE,DECAYED
53904.0,STARLINK-4787,PAYLOAD,2023-01-04 15:35:55,15.08839455,0.0002020999999999,53.2181,131.3389,44.1792,315.9361,0.00012336,1.676e-05,0.0,0 STARLINK-4787,1 53904U 22119U   23004.64994460  .00001676  00000-0  12336-3 0  9995,2 53904  53.2181 131.3389 0002021  44.1792 315.9361 15.08839455 16141,6917.882,95.438,541.145,538.349,0.0
53904.0,STARLINK-4787,PAYLOAD,2023-01-05 01:08:15,15.08828816,0.0001725,53.2176,129.5569,42.3011,317.8114,-2.0999e-05,-6.22e-06,0.0,0 STARLINK-4787,1 53904U 22119U   23005.04739825 -.00000622  00000-0 -20999-4 0  9999,2 53904  53.2176 129.5569 0001725  42.3011 317.8114 15.08828816 16201,6917.915,95.438,540.9730000000002,538.586,0.0
53904.0,STARLINK-4787,PAYLOAD,2023-01-05 10:40:36,15.0880639,0.0001746,53.2187,127.7706,40.2372,319.8749,-0.00015591,-2.766e-05,0.0,0 STARLINK-4787,1 53904U 22119U   23005.44486141 -.00002766  00000-0 -15591-3 0  9995,2 53904  53.2187 127.7706 0001746  40.2372 319.8749 15.08806390 16261,6917.983,95.44,541.056,538.64,0.0
53904.0,STARLINK-4787,PAYLOAD,2023-01-05 17:02:08,15.08812215,0.0001950999999999,53.2182,126.5831,45.8505,314.2648,-8.913399999999999e-05,-1.705e-05,0.0,0 STARLINK-4787,1 53904U 22119U   23005.70982046 -.00001705  00000-0 -89134-4 0  9996,2 53904  53.2182 126.5831 0001951  45.8505 314.2648 15.08812215 16720,6917.965,95.439,541.18,538.481,0.0
53904.0,STARLINK-4787,PAYLOAD,2023-01-06 10:31:21,15.08843661,0.0001739,53.2182,123.3108,45.5566,314.5568,3.3575e-05,2.46e-06,0.0,0 STARLINK-4787,1 53904U 22119U   23006.43844206  .00000246  00000-0  33575-4 0  9997,2 53904  53.2182 123.3108 0001739  45.5566 314.5568 15.08843661 16419,6917.8690000000015,95.437,540.937,538.531,0.0
53904.0,STARLINK-4787,PAYLOAD,2023-01-06 13:42:07,15.0884676,0.0001747,53.2181,122.7161,42.1869,317.9257,4.9147e-05,4.94e-06,0.0,0 STARLINK-4787,1 53904U 22119U   23006.57091950  .00000494  00000-0  49147-4 0  9999,2 53904  53.2181 122.7161 0001747  42.1869 317.9257 15.08846760 16851,6917.86,95.437,540.933,538.516,0.0
53904.0,STARLINK-4787,PAYLOAD,2023-01-07 00:49:49,15.08845785,0.000174,53.2182,120.6348,43.5498,316.5631,4.9235e-05,4.96e-06,0.0,0 STARLINK-4787,1 53904U 22119U   23007.03459996  .00000496  00000-0  49235-4 0  9999,2 53904  53.2182 120.6348 0001740  43.5498 316.5631 15.08845785 16927,6917.863,95.437,540.931,538.524,0.0
53904.0,STARLINK-4787,PAYLOAD,2023-01-07 10:22:09,15.08822084,0.0001748,53.2175,118.8502,51.255,308.8598,0.00018542,2.663e-05,0.0,0 STARLINK-4787,1 53904U 22119U   23007.43205509  .00002663  00000-0  18542-3 0  9996,2 53904  53.2175 118.8502 0001748  51.2550 308.8598 15.08822084 16566,6917.935,95.439,541.009,538.591,0.0
53904.0,STARLINK-4787,PAYLOAD,2023-01-07 13:32:55,15.0882292,0.0001603,53.2183,118.2563,45.447,314.6653,0.00017968,2.571e-05,0.0,0 STARLINK-4787,1 53904U 22119U   23007.56453552  .00002571  00000-0  17968-3 0  9992,2 53904  53.2183 118.2563 0001603  45.4470 314.6653 15.08822920 17008,6917.933000000001,95.439,540.9069999999998,538.689,0.0
53904.0,STARLINK-4787,PAYLOAD,2023-01-08 10:12:56,15.08844538,0.0001685,53.218,114.3897,50.3911,309.723,2.815e-05,1.6e-06,0.0,0 STARLINK-4787,1 53904U 22119U   23008.42564905  .00000160  00000-0  28150-4 0  9991,2 53904  53.2180 114.3897 0001685  50.3911 309.7230 15.08844538 16719,6917.866999999998,95.437,540.8969999999998,538.566,0.0
53904.0,STARLINK-4787,PAYLOAD,2023-01-08 13:23:42,15.08846243,0.0001634,53.2179,113.7954,47.4179,312.6951,5.892600000000001e-05,6.5e-06,0.0,0 STARLINK-4787,1 53904U 22119U   23008.55812666  .00000650  00000-0  58926-4 0  9993,2 53904  53.2179 113.7954 0001634  47.4179 312.6951 15.08846243 17158,6917.861,95.437,540.857,538.596,0.0
53904.0,STARLINK-4787,PAYLOAD,2023-01-09 10:03:42,15.08840951,0.0001598,53.2185,109.9308,45.112,315.0002,8.4597e-05,1.059e-05,0.0,0 STARLINK-4787,1 53904U 22119U   23009.41924691  .00001059  00000-0  84597-4 0  9998,2 53904  53.2185 109.9308 0001598  45.1120 315.0002 15.08840951 17283,6917.877,95.437,540.8480000000002,538.637,0.0
53904.0,STARLINK-4787,PAYLOAD,2023-01-09 16:25:14,15.08848999,0.0001479,53.2185,108.7403,47.5151,312.5966,9.012e-05,1.147e-05,0.0,0 STARLINK-4787,1 53904U 22119U   23009.68420070  .00001147  00000-0  90120-4 0  9996,2 53904  53.2185 108.7403 0001479  47.5151 312.5966 15.08848999 16903,6917.853,95.437,540.741,538.695,0.0
53904.0,STARLINK-4787,PAYLOAD,2023-01-10 11:29:53,15.08835166,0.0001520999999999,53.2184,105.1725,50.0464,310.0661,-2.6732e-05,-7.13e-06,0.0,0 STARLINK-4787,1 53904U 22119U   23010.47909428 -.00000713  00000-0 -26732-4 0  9992,2 53904  53.2184 105.1725 0001521  50.0464 310.0661 15.08835166 17025,6917.895,95.438,540.812,538.7080000000002,0.0
53904.0,STARLINK-4787,PAYLOAD,2023-01-10 13:05:16,15.0884417,0.0001378,53.2189,104.8733,59.231,300.8818,6.324e-05,7.19e-06,0.0,0 STARLINK-4787,1 53904U 22119U   23010.54532582  .00000719  00000-0  63240-4 0  9992,2 53904  53.2189 104.8733 0001378  59.2310 300.8818 15.08844170 17459,6917.868,95.437,540.686,538.779,0.0
53904.0,STARLINK-4787,PAYLOAD,2023-01-11 11:20:40,15.08842887,0.0001504,53.2175,100.7149,54.6124,305.5009,-3.2896e-05,-8.12e-06,0.0,0 STARLINK-4787,1 53904U 22119U   23011.47269207 -.00000812  00000-0 -32896-4 0  9995,2 53904  53.2175 100.7149 0001504  54.6124 305.5009 15.08842887 17179,6917.871999999999,95.437,540.7769999999998,538.696,0.0
53904.0,STARLINK-4787,PAYLOAD,2023-01-11 12:56:03,15.08842327,0.0002305,53.2176,100.4155,55.9801,304.141,-4.8409e-06,-3.65e-06,0.0,0 STARLINK-4787,1 53904U 22119U   23011.53893453 -.00000365  00000-0 -48409-5 0  9999,2 53904  53.2176 100.4155 0002305  55.9801 304.1410 15.08842327 17608,6917.873000000001,95.437,541.3330000000002,538.144,0.0
53904.0,STARLINK-4787,PAYLOAD,2023-01-12 12:46:51,15.08837484,0.0001186,53.217,95.9572,82.7466,277.3661,-7.2986e-07,-2.99e-06,0.0,0 STARLINK-4787,1 53904U 22119U   23012.53253612 -.00000299  00000-0 -72986-6 0  9991,2 53904  53.2170  95.9572 0001186  82.7466 277.3661 15.08837484 17331,6917.888000000001,95.438,540.5740000000002,538.933,0.0
53904.0,STARLINK-4787,PAYLOAD,2023-01-12 22:19:09,15.08843197,0.000113,53.2171,94.1728,91.6684,268.4437,7.557000000000001e-09,-2.88e-06,0.0,0 STARLINK-4787,1 53904U 22119U   23012.92997216 -.00000288  00000-0  75570-8 0  9990,2 53904  53.2171  94.1728 0001130  91.6684 268.4437 15.08843197 17819,6917.871,95.437,540.5169999999998,538.9540000000002,0.0
53904.0,STARLINK-4787,PAYLOAD,2023-01-13 12:37:37,15.08844503,0.0001333,53.2182,91.494,84.2612,275.8532,3.1563e-05,2.15e-06,0.0,0 STARLINK-4787,1 53904U 22119U   23013.52613410  .00000215  00000-0  31563-4 0  9997,2 53904  53.2182  91.4940 0001333  84.2612 275.8532 15.08844503 17901,6917.866999999999,95.437,540.654,538.809,0.0
53904.0,STARLINK-4787,PAYLOAD,2023-01-13 22:09:56,15.08845143,0.0001329,53.2179,89.7083,81.4403,278.67400000000004,7.9562e-05,9.79e-06,0.0,0 STARLINK-4787,1 53904U 22119U   23013.92357153  .00000979  00000-0  79562-4 0  9998,2 53904  53.2179  89.7083 0001329  81.4403 278.6740 15.08845143 17966,6917.865,95.437,540.649,538.81,0.0
53904.0,STARLINK-4787,PAYLOAD,2023-01-14 10:53:00,15.08858222,0.0001109,53.2189,87.3305,89.21600000000001,270.8959,0.00024987,3.693e-05,0.0,0 STARLINK-4787,1 53904U 22119U   23014.45347510  .00003693  00000-0  24987-3 0  9999,2 53904  53.2189  87.3305 0001109  89.2160 270.8959 15.08858222 17621,6917.825,95.436,540.457,538.923,0.0
53904.0,STARLINK-4787,PAYLOAD,2023-01-15 04:22:17,15.08818957,0.0001117,53.2183,84.0599,105.3806,254.731,-0.00010811,-2.007e-05,0.0,0 STARLINK-4787,1 53904U 22119U   23015.18214770 -.00002007  00000-0 -10811-3 0  9992,2 53904  53.2183  84.0599 0001117 105.3806 254.7310 15.08818957 17735,6917.945,95.439,540.582,539.0369999999999,0.0
53904.0,STARLINK-4787,PAYLOAD,2023-01-15 10:43:49,15.08832344,0.0001389,53.2179,82.8704,102.8971,257.2176,5.8252e-06,-1.95e-06,0.0,0 STARLINK-4787,1 53904U 22119U   23015.44709870 -.00000195  00000-0  58252-5 0  9999,2 53904  53.2179  82.8704 0001389 102.8971 257.2176 15.08832344 17778,6917.904,95.438,540.73,538.808,0.0
53904.0,STARLINK-4787,PAYLOAD,2023-01-15 21:51:30,15.08842289,0.0001779,53.2176,80.7885,99.9719,260.1474,-5.6535e-05,-1.188e-05,0.0,0 STARLINK-4787,1 53904U 22119U   23015.91077539 -.00001188  00000-0 -56535-4 0  9996,2 53904  53.2176  80.7885 0001779  99.9719 260.1474 15.08842289 18269,6917.8730000000005,95.437,540.969,538.508,0.0
53904.0,STARLINK-4787,PAYLOAD,2023-01-16 10:34:36,15.08838217,0.000156,53.2194,78.4098,101.832,258.2848,-0.00019615,-3.408e-05,0.0,0 STARLINK-4787,1 53904U 22119U   23016.44070140 -.00003408  00000-0 -19615-3 0  9990,2 53904  53.2194  78.4098 0001560 101.8320 258.2848 15.08838217 17929,6917.886,95.438,540.83,538.672,0.0
53904.0,STARLINK-4787,PAYLOAD,2023-01-16 13:45:22,15.08837654,0.000153,53.2187,77.8148,100.9025,259.214,-0.00019257,-3.351e-05,0.0,0 STARLINK-4787,1 53904U 22119U   23016.57318164 -.00003351  00000-0 -19257-3 0  9994,2 53904  53.2187  77.8148 0001530 100.9025 259.2140 15.08837654 18368,6917.888000000001,95.438,540.811,538.694,0.0
53904.0,STARLINK-4787,PAYLOAD,2023-01-17 04:03:52,15.0881217,0.000136,53.2181,75.1384,107.1359,252.9782,0.0001024,1.341e-05,0.0,0 STARLINK-4787,1 53904U 22119U   23017.16935326  .00001341  00000-0  10240-3 0  9993,2 53904  53.2181  75.1384 0001360 107.1359 252.9782 15.08812170 18037,6917.965,95.439,540.771,538.89,0.0
53904.0,STARLINK-4787,PAYLOAD,2023-01-17 10:25:24,15.08825823,0.0001273,53.2179,73.95,96.6496,263.4641,0.00013175,1.809e-05,0.0,0 STARLINK-4787,1 53904U 22119U   23017.43430817  .00001809  00000-0  13175-3 0  9997,2 53904  53.2179  73.9500 0001273  96.6496 263.4641 15.08825823 18071,6917.924,95.438,540.669,538.908,0.0
